ELECTION,OFFICECD,CANDID,CANCLASS,CANDLAST,CANDFIRST,CANDMI,COMMITTEE,NAME,C_CODE,STRNO,STRNAME,APARTMENT,BOROUGHCD,CITY,STATE,ZIP,OCCUPATION,EMPNAME,EMPSTRNO,EMPSTRNAME,EMPCITY,EMPSTATE,AMNT
2025,1,2993,P,Cuomo,Andrew,M,H,"Abramowitz, Elkan",IND,,,,Z,Sands Point,NY,11050,Attorney,Morvillo Abramowitz et al,565,5th Ave,New York,NY,37700
2025,5,2874,P,Coleman,Jess,K,H,Abundance New York,PCOMP,,,,Z,Washington,DC,20005,,,,,,,7598.35
2025,3,311,P,Levine,Mark,,P,Abundance New York PAC,PCOMP,,,,Z,Washington,DC,20005,,,,,,,7110.4
2025,5,2848,P,Wetzler,Benjamin,D,H,Abundance NY PAC,PCOMP,,,,Z,Washington,DC,20005,,,,,,,8115.42
2025,1,2899,P,Mamdani,Zohran,K,H,"Ahmad, Taiba",IND,,,,Q,Whitestone,NY,11357,Educator,NYC DOE,65,Court Street,Brooklyn,NY,2670
2025,1,2993,P,Cuomo,Andrew,M,H,"Aidala, Arthur",IND,,,,K,Brooklyn,NY,11228,Attorney,"Aidala, Bertuna & Kamins",546,5th Avenue,New York,NY,10650
2025,1,2993,P,Cuomo,Andrew,M,H,"Aiello, Stephen",IND,,,,M,New York,NY,10017,Consultant,Self-Employed,860,United Nations Plaza,New York,NY,20900
2025,1,2993,P,Cuomo,Andrew,M,H,"ALAIMO, MARIA PIA",IND,,,,Q,Astoria,NY,11105,LAWYER,MARIA PIA ALAIMO PC,23-25,31st Street,Astoria,NY,7800
2025,1,2884,P,Ramos,Jessica,,H,"Alarcon, Tony",IND,,,,Q,East Elmhurst,NY,11369,Organizer,Popular Democracy,449,Troutman St.,Brooklyn,NY,45
2025,1,2993,P,Cuomo,Andrew,M,H,"Angele, Kathy",IND,,,,M,New York,NY,10128,President and Creative Directo,Angle New York,51,East 90th Street,New York,NY,13250
2025,1,2993,P,Cuomo,Andrew,M,H,"Angelson, Mark",IND,,,,M,New York,NY,10075,Chairman,Institute of International Edu,876,Park Ave,New York,NY,39400
2025,4,1707,P,Gibson,Vanessa,L,N,"Anzalone, Anne Marie",IND,,,,Q,Long Island City,NY,11103,Chief of Staff,Congressman Joseph Crowley,82-11,37 Ave,Jackson Heights,NY,150
2025,1,2857,P,Myrie,Zellnor,,H,"Anzalone, Joseph",IND,,,,K,Brooklyn,NY,11231,Consultant,River and Mercantile,450,Lexington Ave,New York,NY,1255
2025,4,1902,P,Salamanca,Rafael,,N,"Armwood, Garrett",IND,,,,Q,Long Island City,NY,11109,Vice President,SL Green Realty Corp,One,Vanderbilt Avenue,New York,NY,4980
2025,5,2327,P,Riley,Kevin,C,L,"Armwood, Garrett",IND,,,,Q,Long Island City,NY,11109,Vice President,SL Green Realty Corp,One,Vanderbilt Avenue,New York,NY,2000
2025,1,2063,P,Adams,Adrienne,E,M,"Arthur, Shannon",IND,,,,Z,Johns Creek,GA,30024,Vice President,Higher Heights for America,147,Prince St,Brooklyn Heights,NY,5269.08
2025,1,2884,P,Ramos,Jessica,,H,"Attia, Mohamed",IND,,,,K,Brooklyn,NY,11214,Director,Urban Justice Center,40,Rector Street,Trinity,NY,380
2025,5,2847,P,Perez Jr.,Freddy,,H,"ayala, rosa",IND,,,,X,Bronx,NY,10456,operations director,united bodegas of america,783,e. 163rd street,Bronx,NY,270
2025,1,2857,P,Myrie,Zellnor,,H,"Baisden, Trevor",IND,,,,M,New York,NY,10031,Educational consultant,Self-employed,404,W 145th St,New York,NY,1550
2025,1,2993,P,Cuomo,Andrew,M,H,"Bakst, Dina",IND,,,,M,New York,NY,10024,Attorney,Self-Employed,225,Central Park West,New York,NY,22735
2025,1,2884,P,Ramos,Jessica,,H,"Baran, Hugh",IND,,,,M,Long Island City,NY,11101,Counsel,Katz Banks Kumin LLP,45-50,Pearson St.,New York,NY,2000
2025,1,2993,P,Cuomo,Andrew,M,H,"Barricelli, Louis",IND,,,,K,Brooklyn,NY,11211,Bakery Cafe,Self-Employed,60,7th Avenue,Brooklyn,NY,45325
2025,1,2857,P,Myrie,Zellnor,,H,"Barsky, Neil",IND,,,,M,Manhattan,NY,10024,Not Employed,Not Employed,40,west 77th Street,Manhattan,NY,5600
2025,1,2993,P,Cuomo,Andrew,M,H,"Becker, Carol",IND,,,,M,New York,NY,10010,President,William Greenberg Desserts,1100,Madison Avenue,New York,NY,14710
2025,1,2857,P,Myrie,Zellnor,,H,"Bedard, Rachael",IND,,,,K,Brooklyn,NY,11217,Physician,Health + Hospitals,1,Hanson Street,Brooklyn,NY,32470
2025,1,2857,P,Myrie,Zellnor,,H,"Beeney, Carola",IND,,,,M,New York,NY,10024,lawyer,Center for Appellate litigatio,120,Wall Street,new york,NY,7000
2025,1,2857,P,Myrie,Zellnor,,H,"Beeney, Garrard",IND,,,,M,Manhattan,NY,10023,Attorney,Sulllivan & Cromwell LLP,125,broad street,Manhattan,NY,4650
2025,1,2993,P,Cuomo,Andrew,M,H,"Bendheim, Jack",IND,,,,X,Bronx,NY,10471,President,Phibro,300,Frank W Burr Boulevard,Teaneck,NJ,12785
2025,5,2057,P,Santana,Elvis,,I,"Benitez, Rafael",IND,,,,X,Bronx,NY,10459,Unemployed,,,,,,130
2025,5,2860,P,Epstein,Harvey,D,H,"Beranbaum, Joan",IND,,,,M,New York,NY,10003,Retired,,,,,,1648
2025,1,2993,P,Cuomo,Andrew,M,H,"Berman, Geoffrey",IND,,,,M,New York,NY,10075,Attorney,Fried Frank,1,NY Plaza,New York,NY,2350
2025,1,2993,P,Cuomo,Andrew,M,H,"Beshar, Peter",IND,,,,Z,Rye,NY,10580,Retired,,,,,,41200
2025,4,1902,P,Salamanca,Rafael,,N,"Betancourt, Love",IND,,,,X,Bronx,NY,10455,Employee,NYC DOE,52,Chambers Street,New York,NY,225
2025,1,2903,P,Walden,James,,H,"Bloom, Molly",IND,,,,Z,Boulder,CO,80304,Author Speaker,Self-Employed,505,Dellwood Avenue,Boulder,CO,250
2025,2,1227,P,Williams,Jumaane,D,R,"Bolden, Dietrice",IND,,,,M,New York,NY,10037,Senior Associate,The Greater Harlem Chamber of,200 A,West 136th st,New York,NY,1000
2025,1,2993,P,Cuomo,Andrew,M,H,"Born, Richard",IND,,,,M,New York,NY,10028,Hospitality Executive,Self,595,Madison Avenue,New York,NY,64000
2025,5,2909,P,Maloney,Virginia,,H,"Borrero, Ta√≠na",IND,,,,M,New York,NY,10021,Senior Vice President,The Hayes Initiative,888-C,Eighth Avenue,New York,NY,600
2025,1,2993,P,Cuomo,Andrew,M,H,"Braff, Nelson",IND,,,,Z,Demarest,NJ,7627,Attorney,Patriot real estate,50,Ross Ave,Demarest,NJ,21668
2025,1,2993,P,Cuomo,Andrew,M,H,"Breslin, Kevin",IND,,,,M,Far Rockaway,NY,11694,Producer,"Breslin Media, Inc.",221,Beach 137th St,Far Rockaway,NY,2270
2025,1,2903,P,Walden,James,,H,"Brez, Zachary",IND,,,,M,New York,NY,10023,Attorney,Kirkland & Ellis LLP,601,Lexington Avenue,New York,NY,250
2025,1,2993,P,Cuomo,Andrew,M,H,"Burgos, Tonio",IND,,,,Z,Jersey City,NJ,7305,Lobbying and Consulting,Tonio Burgos & Associates Inc,115,Broadway,Trinity,NY,4650
2025,1,2063,P,Adams,Adrienne,E,M,"Burkett, Tiffany",IND,,,,M,New York,NY,10037,,,,,,,4270
2025,5,BB,P,Weiner,Anthony,,K,"Carone, Anthony",IND,,,,M,Far Rockaway,NY,11694,Managing Member,"Carone & Associates, PLLC",2055,Flatbush Avenue,Brooklyn,NY,1400
2025,3,1990,P,Brannan,Justin,,N,"Chan, Wai Yee",IND,,,,K,Brooklyn,NY,11214,,,,,,,2150
2025,1,2857,P,Myrie,Zellnor,,H,"Charmani, Athanasia",IND,,,,M,New York,NY,10012,Attorney,Winston & Strawn,Elizabet,Elizabeth St.,Manhattan,NY,600
2025,1,148,P,Stringer,Scott,M,S,"Chen, Ken Wu",IND,,,,Q,Douglaston,NY,11362,President,Ken Rest Inc,492,East Meadow Ave,East Meadow,NY,1500
2025,1,148,P,Stringer,Scott,M,S,"Chen, Louis",IND,,,,Z,Ellicott City,MD,21042,Commodity trading,Self-Employed,2615,Sand Hill Road,Ellicott City,MD,4100
2025,5,2343,P,Ung,Sandra,,K,"Chen, Zhao Yin",IND,,,,Q,Bayside,NY,11364,owner,Lake Laundromat,151,Lake Ave.,Yonkers,NY,4860
2025,5,2453,P,Lee,Linda,,K,"Chen, Zhao Yin",IND,,,,Q,Bayside,NY,11364,owner,Lake Laundromat,151,Lake Ave.,Yonkers,NY,4125
2025,1,148,P,Stringer,Scott,M,S,"Cheung, Hilton",IND,,,,Z,Jericho,NY,11753,Pharmacist,Family Care,136-18,39th Avenue,Flushing,NY,10255
2025,1,2899,P,Mamdani,Zohran,K,H,"Chiarito, Anthony",IND,,,,K,Brooklyn,NY,11203,Managing Director of Strategic,The Bronx Defenders,360,East 161st Street,Bronx,NY,6200
2025,5,2343,P,Ung,Sandra,,K,"Cho, Won Hoon",IND,,,,Q,Bayside,NY,11364,President,Korean American Senior Citizen,14918,41st Ave.,Flushing,NY,3545
2025,1,2899,P,Mamdani,Zohran,K,H,"Choudri, Shazia",IND,,,,M,New York,NY,10018,Education,Chelsea Day School,319,5th Ave,New York,NY,6722
2025,1,2903,P,Walden,James,,H,"Cohen, Alan",IND,,,,M,New York,NY,10013,Attorney,Self-Employed,55,Hudson Street,New York,NY,300
2025,1,2993,P,Cuomo,Andrew,M,H,"Cohen, Rodgin",IND,,,,Z,Irvington,NY,10533,Attorney,Sullivan & Cromwell LLP,535,Madison Ave,New York,NY,33831.36
2025,1,2993,P,Cuomo,Andrew,M,H,"Cole, Kenneth",IND,,,,M,New York,NY,10022,founder,KC Productions,511,West 21st Street,New York,NY,750
2025,5,2312,P,Bottcher,Erik,,K,"Colosi, Michael",IND,,,,M,New York,NY,10001,Attorney,Unemployed,,,,,14050
2025,5,2382,P,Carr,David,M,K,"Connors, Katherine",IND,,,,S,Staten Island,NY,10301,Physical Therapist,Self-Employed,74,Duncan Road,Staten Island,NY,5325
2025,1,1545,P,Adams,Eric,L,N,"Constable, Richard",IND,,,,Z,South Orange,NJ,7079,EVP I Government Affairs & Soc,Madison Square Garden Entertai,2,Penn Plz,New York,NY,29400
2025,4,1707,P,Gibson,Vanessa,L,N,"Constantinople, Anthony",IND,,,,Z,Ridgewood,NJ,7450,Government Relations,Self,233,Broadway,New York,NY,10255
2025,5,1256,P,Cabrera,Fernando,L,N,"Cortez, Dimas",IND,,,,X,The Bronx,NY,10465,Retired,,,,,,1400
2025,5,2057,P,Santana,Elvis,,I,"Coss, Rafael",IND,,,,Z,Clifton,NJ,7014,Housemen,Hilton Midtown NY,1335,6th Avenue,New York,NY,1750
2025,4,2988,P,Acquafredda,Janine,,H,"Cotto, Juan",IND,,,,K,Brooklyn,NY,11232,Realestate,Juan Corto,149,30th Street,Brooklyn,NY,800
2025,5,1945,NP,Farias,Amanda,,L,"Crowley, Elizabeth",IND,,,,Q,Arverne,NY,11692,President,BTEA,1325,Avenue of Americas,New York,NY,3075.97
2025,3,311,P,Levine,Mark,,P,"Crowley, Elizabeth",IND,,,,Q,Arverne,NY,11692,President & CEO,BTEA,1325,Avenue of Americas,Manhattan,NY,2675
2025,4,1902,P,Salamanca,Rafael,,N,"Cruz, Pauline",IND,,,,M,New York,NY,10032,Mgr.,Urban Health Plan,1065,Southern Blvd,Bronx,NY,90
2025,1,2993,P,Cuomo,Andrew,M,H,"Cuomo, Bella",IND,,,,M,New York,NY,10128,Student,Student,,,,,2900
2025,1,2920,P,Tilson,Whitney,R,H,"Curry IV, Ravenel B",IND,,,,M,New York,NY,10019,Investor,Self Employed,106,Central Park South,New York,NY,16314
2025,1,2899,P,Mamdani,Zohran,K,H,"Dakwar, Jamil",IND,,,,M,New York,NY,10011,Advocate,Aclu,125,Broad St,New York,NY,4075
2025,1,2993,P,Cuomo,Andrew,M,H,"Danzig, Sarah",IND,,,,M,New York,NY,10069,Consultant,Self-Employed,,,,,5145
2025,3,1990,P,Brannan,Justin,,N,"Daus, Mattthew",IND,,,,K,Brooklyn,NY,11209,,,,,,,8700
2025,2,1227,P,Williams,Jumaane,D,R,Davidoff Hutcher & Citron LLP,LLC,,,,Z,White Plains,NY,10605,,,,,,,250
2025,1,148,P,Stringer,Scott,M,S,"Davidson, Dash",IND,,,,K,Brooklyn,NY,11222,Founding principal,High Tide Capital,98,Freeman St,Brooklyn,NY,1075
2025,5,1529,NP,Menin,Julie,,L,"de Milly, Michele",IND,,,,M,New York,NY,10009,Public Affairs,"Geto & de Milly, Inc.",276,5th Avenue,New York,NY,8000
2025,1,2993,P,Cuomo,Andrew,M,H,"DeRosa, Giorgio",IND,,,,Z,Lake George,NY,12845,Consultant,Self-Employed,146,State St,Albany,NY,8050
2025,1,2993,P,Cuomo,Andrew,M,H,"DeRosa, Melissa",IND,,,,M,New York,NY,10065,Consultant,Self-Employed,14,Sunnyview Ln,Lake George,NY,14500
2025,1,2899,P,Mamdani,Zohran,K,H,"DeVaan, Juliana",IND,,,,K,Brooklyn,NY,11328,Educator,Columbia University,1180,Amsterdam Ave,New York,NY,10453.75
2025,1,2884,P,Ramos,Jessica,,H,"Diaz, Rafael",IND,,,,Z,Scarsdale,NY,10583,Entrepeneur,Self Employed,43,West 46st,New York,NY,2950
2025,1,2903,P,Walden,James,,H,"Dickson, Paul",IND,,,,Z,Shreveport,LA,71106,investments,Self-Employed,410,Kay Lane,Shreveport,LA,7300
2025,1,2993,P,Cuomo,Andrew,M,H,"DiPalermo, Christian",IND,,,,Z,Mt Sinai,NY,11766,Consultant,CDD Strategies,43,Grasslands Circle,Mt Sinai,NY,500
2025,1,2857,P,Myrie,Zellnor,,H,"Doolan, Sean",IND,,,,Z,Albany,NY,12207,Attorney,Hinman Straub,121,State St,Albany,NY,2275
2025,1,148,P,Stringer,Scott,M,S,"Doukas, Peter G",IND,,,,K,Brooklyn,NY,11235,Accountant,Self Employed,3144,Emmons ave,Brooklyn,NY,850
2025,1,148,P,Stringer,Scott,M,S,"Draizin, Mitchell",IND,,,,M,New York,NY,10017,R.E. Finance,Longview Capital Advisors Inc.,570,Lexington Avenue,New York,NY,2100
2025,1,2993,P,Cuomo,Andrew,M,H,"Edell, Deborah",IND,,,,M,New York,NY,10021,Retired,Retired,65,E. 76th St,New York,NY,47620
2025,1,148,P,Stringer,Scott,M,S,"Edwards, Kevin",IND,,,,K,Brooklyn,NY,11230,Business Strategist,Self-Employed,1233,Ocean Ave,Brooklyn,NY,5456
2025,1,2857,P,Myrie,Zellnor,,H,"Egerman, Mark",IND,,,,K,Brooklyn,NY,11217,Project Manager,Google,111,8th ave,New York,NY,9100
2025,1,2993,P,Cuomo,Andrew,M,H,"Eisenberg, Douglas",IND,,,,Z,Germantown,NY,12526,Attorney,Eisenberg & Baum LLP,24,Union Square East,New York,NY,47015
2025,1,2857,P,Myrie,Zellnor,,H,"Elijah, Jill",IND,,,,K,Brooklyn,NY,11238,ED,ALLIANCE OF FAMILIES FOR JUSTI,8,W. 126TH STREET,Manhattan,NY,2000
2025,1,2903,P,Walden,James,,H,"Elsesser, Henry",IND,,,,K,Brooklyn,NY,11201,Retired,,,,,,1000
2025,5,2057,P,Santana,Elvis,,I,"Ferguson, Sonya",IND,,,,X,Bronx,NY,10459,Organizer,Banana Kelly,963,Prospect Avenue,Bronx,NY,40
2025,1,2993,P,Cuomo,Andrew,M,H,"Fields Lewis, Lisa",IND,,,,M,New York,NY,10075,Unemployed,,,,,,80157.57
2025,1,2857,P,Myrie,Zellnor,,H,"Fink, Julie",IND,,,,K,Brooklyn,NY,11217,Managing Partner,Hecker Fink LLP,350,5th Avenue,New York,NY,3800
2025,5,2057,P,Santana,Elvis,,I,"Forde, ANDREA",IND,,,,X,Bronx,NY,10460,Storage Manager,Extra Space Storage,945,Zerega Avenue,Bronx,NY,125
2025,5,1256,P,Cabrera,Fernando,L,N,"Fournier, Elba",IND,,,,X,Bronx,NY,10453,Secretary,Changar Realty Corp,1720,University Avenue,The Bronx,NY,605
2025,4,2988,P,Acquafredda,Janine,,H,"Frazzetta, Anthony",IND,,,,S,Staten Island,NY,10312,Broker,Self-Employed,6806,18th Ave,Brooklyn,NY,700
2025,1,2903,P,Walden,James,,H,"Gala, Michael",IND,,,,K,Brooklyn,NY,11223,Fire Dept,NYC Fire Department,9,Metro Tech Center,Brooklyn,NY,18050
2025,1,148,P,Stringer,Scott,M,S,"Garelik, Neal C",IND,,,,X,Bronx,NY,10471,Owner,Excel Guard Corp.,505,Eighth Avenue,New York,NY,18000
2025,5,2192,P,Dinowitz,Eric,,L,"Garelik, Neal C",IND,,,,X,The Bronx,NY,10471,Business Owner,Excel Security,505,8th Avenue,New York,NY,5250
2025,1,148,P,Stringer,Scott,M,S,"Gelman, Audrey",IND,,,,K,Brooklyn,NY,11216,Business Owner,The Six Bells,221,Court Street,Brooklyn,NY,300
2025,4,1550,P,Reynoso,Antonio,,M,"George, Lauren",IND,,,,K,Brooklyn,NY,11217,,student,,,,,1345
2025,5,2285,NP,Williams,Nantasha,,K,"George, Lauren",IND,,,,K,Brooklyn,NY,11218,Lobbyist,Constantinpole & Vallone Consu,233,Broadway,New York,NY,400
2025,5,1683,P,Banks,Christopher,,K,"German, Mordechai",IND,,,,Z,Passaic,NJ,7055,Dean,Cong B'nai Israel,671,Louisiana Ave,Brooklyn,NY,1900
2025,1,2993,P,Cuomo,Andrew,M,H,"Gerstenhaber, Kelly",IND,,,,M,New York,NY,10013,Research Scientist,Research for Mental Hygiene,150,Broadway,Albany,NY,57553
2025,1,2993,P,Cuomo,Andrew,M,H,"Gertler, Eric",IND,,,,M,New York,NY,10001,CEO,US News & World Report,450,W. 33rd Street,New York,NY,61655
2025,1,2857,P,Myrie,Zellnor,,H,"Gesser, Abraham",IND,,,,K,Brooklyn,NY,11201,Lawyer,Debevoise,100,Amity Street,Brooklyn,NY,6300
2025,5,2057,P,Santana,Elvis,,I,"Giles, Roslyn",IND,,,,X,Bronx,NY,10459,Unemployed,,,,,,50
2025,1,2993,P,Cuomo,Andrew,M,H,"Gilmartin, Devin",IND,,,,K,Brooklyn,NY,11217,CEO,The Canvas Global Inc.,93,South Street,New York,NY,12864
2025,1,2993,P,Cuomo,Andrew,M,H,"Gilmartin, MaryAnne",IND,,,,K,Brooklyn,NY,11217,CEO,MAG Partners,1250,Broadway,New York,NY,63660
2025,1,1545,P,Adams,Eric,L,N,"Giuliani, Catherine",IND,,,,Q,Flushing,NY,11358,Consultant,RG Group,1,Penn Plaza,New York,NY,11700
2025,1,148,P,Stringer,Scott,M,S,"Gold, Teddy",IND,,,,K,Brooklyn,NY,11217,Founder,3i Members,377a,Atlantic Ave,Brooklyn,NY,500
2025,1,1545,P,Adams,Eric,L,N,"Goldstein, Arthur",IND,,,,Z,New Rochelle,NY,10804,"Chair, City Government Relatio",Davidoff Hutcher & Citron LLP,605,Third Avenue,New York,NY,12600
2025,4,1902,P,Salamanca,Rafael,,N,"Goldstein, Arthur",IND,,,,Z,New Rochelle,NY,10804,Attorney,DHC,605,3rd Ave,New York,NY,1000
2025,4,1902,P,Salamanca,Rafael,,N,"Gonzalez, Roy",IND,,,,K,Brooklyn,NY,11211,,Milea Truck Sales,885,E. 149th Street,Bronx,NY,1400
2025,5,2312,P,Bottcher,Erik,,K,"Goren, Arielle",IND,,,,M,New York,NY,10023,,,,,,,1000
2025,1,2903,P,Walden,James,,H,"Granger, Raymond",IND,,,,K,Brooklyn,NY,11215,Attorney,Granger & Associates LLC,40,Fulton Street,New York,NY,1275
2025,4,296,P,Hoylman-Sigal,Brad,,K,"Greenspan, Sally",IND,,,,M,Manhattan,NY,10011,Not Employed,Not Employed,139,W19th Street,Manhattan,NY,1000
2025,1,2857,P,Myrie,Zellnor,,H,"Griffiths, Rachel",IND,,,,K,Brooklyn,NY,11217,Writer,Self employed,103,Berkeley Pl.,Brooklyn,NY,1000
2025,1,2899,P,Mamdani,Zohran,K,H,"Gross, Jack",IND,,,,,,,,,,,,,,21961.88
2025,5,2343,P,Ung,Sandra,,K,"Guillergan, Eve",IND,,,,Q,Sunnyside,NY,11104,Director,NYC Bar Association,42,West 44th Street,New York,NY,3566.26
2025,5,2057,P,Santana,Elvis,,I,"Guzman, Noelia",IND,,,,X,Bronx,NY,10455,Bus Driver,Total Transportation,80,Edison Avenue,Mount Vernon,NY,100
2025,1,148,P,Stringer,Scott,M,S,"Haber, Jason",IND,,,,M,New York,NY,10024,Real Estate Broker,Warburg Realty,451,Columbus Ave,New York,NY,1175
2025,1,148,P,Stringer,Scott,M,S,"Haller, Jessica",IND,,,,X,The Bronx,NY,10471,Political Consultant,Self,4503,Fieldston Avenue,The Bronx,NY,600
2025,3,1990,P,Brannan,Justin,,N,"Hamill, Katie",IND,,,,M,New York,NY,10036,Consultant,Self,400,West 43rd St,Manhattan,NY,1526
2025,5,2312,P,Bottcher,Erik,,K,"Hargreaves, Brad",IND,,,,M,New York,NY,10011,Entrepreneur,Stacklist,240,West 21st Street,New York,NY,7600
2025,1,2063,P,Adams,Adrienne,E,M,"Harmon, Anthony",IND,,,,K,Brooklyn,NY,11221,Special Assistant,Van Buren Street Block Associa,275,Van Buren St,Brooklyn,NY,3260
2025,1,2899,P,Mamdani,Zohran,K,H,"Hasanovic, Adnan",IND,,,,Q,Long Island City,NY,11109,Physician,PAGNY,1901,1st Avenue,New York,NY,2200
2025,1,2899,P,Mamdani,Zohran,K,H,"Hazzaa, Heba",IND,,,,Q,Flushing,NY,11375,Attorney,Clifford Chance US LLP,375,9th Avenue,New York,NY,6150
2025,1,2857,P,Myrie,Zellnor,,H,"Hecker, Sean",IND,,,,M,New York,NY,10075,Lawyer,Kaplan Hecker & Fink LLP,350,Fifth Avenue,Manhattan,NY,10700
2025,1,2903,P,Walden,James,,H,"Henry, Brad",IND,,,,M,New York,NY,10010,Attorney,Blank Rome LLP,1271,6th Avenue,New York,NY,75
2025,3,2842,P,Malave,Ismael,,H,"Hernandez, Louis",IND,,,,K,Brooklyn,NY,11234,Court Security Officer,Walden Security,225,Cadman Plaza East,Brooklyn,NY,6175
2025,1,2857,P,Myrie,Zellnor,,H,"Hertzberg, Judith",IND,,,,K,Brooklyn,NY,11238,Principal,Judith Hertzberg Associates,20,Plaza St E,Brooklyn,NY,500
2025,1,148,P,Stringer,Scott,M,S,"Horn, Michael D",IND,,,,Z,Glen Head,NY,11545,Attorney,Self-Employed,1,Old Country Road,Carle Place,NY,1200
2025,1,2993,P,Cuomo,Andrew,M,H,"Hornig, George",IND,,,,M,New York,NY,10128,Investor and Advisor,Self Employed,1220,Park Ave,New York,NY,33229.59
2025,5,2343,P,Ung,Sandra,,K,"Huang, Sheng",IND,,,,Q,Flushing,NY,11354,Manager,99 Ranch Market,1500,Old Country Rd.,Westbury,NY,11350
2025,1,2993,P,Cuomo,Andrew,M,H,"Izgelov, Ruben",IND,,,,Q,Flushing,NY,11366,Finance,Self-Employed,88-10,136th St.,Kew Gardens,NY,71650
2025,1,2993,P,Cuomo,Andrew,M,H,"Jacobson, Nancy",IND,,,,Z,Miami Beach,FL,33140,Managing Partner,The Post Crew,1150,"18th St, NW",Washington,DC,3375
2025,5,2029,P,Sanchez,Justin,E,I,"Johnson, Lena",IND,,,,X,Bronx,NY,10460,Finance Consultant,Experis US LLC,100,Manpower Pl,Milwaukee,WI,240
2025,1,2884,P,Ramos,Jessica,,H,"Jones, Kevin",IND,,,,K,Brooklyn,NY,11230,Lawyer,Self Employed,624,East 19th Street,Brooklyn,NY,4450
2025,1,2857,P,Myrie,Zellnor,,H,"Joyce, Edward",IND,,,,K,Brooklyn,NY,11201,Writer,self-employed,142,Willow St,Brooklyn,NY,1000
2025,5,2310,P,Nurse,Sandy,,L,"Kabir, Jahangir",IND,,,,K,Brooklyn,NY,11207,Teacher,NYC DOE,2021,Bergen St,Brooklyn,NY,1060
2025,1,2063,P,Adams,Adrienne,E,M,"Kaplan, Dana",IND,,,,K,Brooklyn,NY,11216,Director of Justice Reform,NICJR,110,Decatur Street,Brooklyn,NY,1985
2025,1,2993,P,Cuomo,Andrew,M,H,"Kargman, Sadie",IND,,,,M,New York,NY,10065,Student,,,,,,28324
2025,1,2993,P,Cuomo,Andrew,M,H,"Karp, Brad",IND,,,,M,New York,NY,10023,Attorney,Paul Weiss Rifkind Wharton,1285,Avenue Of The Americas,New York,NY,26900
2025,3,311,P,Levine,Mark,,P,Kasirer,CORP,,,,M,New York,NY,10271,,,,,,,7880
2025,1,1545,P,Adams,Eric,L,N,"Kasirer, Suri",IND,,,,,,,,President,Kasirer LLC,120,Broadway,New York,NY,2100
2025,4,1938,P,Powers,Keith,,M,"Katz, Bradley",IND,,,,M,New York,NY,10025,Real Estate,Fisher Brothers,299,Park Avenue,New York,NY,2300
2025,4,1902,P,Salamanca,Rafael,,N,"Katzman, Stephen",IND,,,,Z,Mahwah,NJ,7430,President,Katzman Produce,213,NYC Terminal Market,Bronx,NY,8000
2025,1,2884,P,Ramos,Jessica,,H,"Kaufer, Maria",IND,,,,Q,Flushing,NY,11375,Dietitician,Unemployed,111-50,75th Road,Flushing,NY,20
2025,1,2903,P,Walden,James,,H,"Kelleher, Denis",IND,,,,K,Brooklyn Heights,NY,11201,Attorney,Self-Employed,350,Fifth Avenue,New York,NY,3100
2025,2,1682,P,Rajkumar,Jenifer,,I,"Khan, Khurram R",IND,,,,Z,Franklin Square,NY,11010,Accountant,Innayah Services Inc.,97-4,101st Ave,Ozone Park,NY,3700
2025,5,2343,P,Ung,Sandra,,K,"Kim, Young Hwan",IND,,,,Q,Flushing,NY,11358,Owner,Hahm Ji Bach,40-11,149th Pl.,Flushing,NY,10025
2025,5,2453,P,Lee,Linda,,K,"Kim, Young Hwan",IND,,,,Q,Flushing,NY,11354,self/owner,Hahm Ji Bach,4011,149th Place,Flushing,NY,6520
2025,5,2312,P,Bottcher,Erik,,K,"Kirdahy, Tom",IND,,,,M,New York,NY,10003,Producer,Self-Employed,29,East 9th Street,New York,NY,6000
2025,1,2993,P,Cuomo,Andrew,M,H,"Klores, Dan",IND,,,,M,New York,NY,10075,Artist,Self-Employed,52,E 80th St,New York,NY,31700
2025,5,2057,P,Santana,Elvis,,I,"Kriss, Richard",IND,,,,Z,Monroe Township,NJ,8831,Chief Technology Officer,Sentry Management Solutions,14,Brucker Blvd,Bronx,NY,875
2025,1,148,P,Stringer,Scott,M,S,"Kui, Christopher",IND,,,,Q,Flushing,NY,11355,Director,Rise Now Inc,136-65,Roosevelt Ave,Flushing,NY,350
2025,1,148,P,Stringer,Scott,M,S,"Landis, Marc",IND,,,,M,New York,NY,10024,Attorney,Phillips Nizer,666,Fifth Avenue,New York,NY,3550
2025,3,1990,P,Brannan,Justin,,N,"LaRocca, Melanie",IND,,,,Q,Flushing,NY,11358,Chief Operatiing Officer,BFC Partners,150,Myrtle Ave,Brooklyn Heights,NY,2100
2025,1,2857,P,Myrie,Zellnor,,H,"Larson, Alina",IND,,,,M,New York,NY,10025,Writer,Self employed,214,Riverside Dr,New York,NY,285
2025,1,2857,P,Myrie,Zellnor,,H,"Lasana, Primo",IND,,,,K,Brooklyn,NY,11225,Nonprofit Executive,Reading Partners,35,Crown St.,Brooklyn,NY,1000
2025,1,2857,P,Myrie,Zellnor,,H,"layden, william",IND,,,,K,Brooklyn,NY,11231,co-founder and ceo,stealth start up,137,nelson st,Brooklyn,NY,500
2025,1,2063,P,Adams,Adrienne,E,M,"Lee, Michelle",IND,,,,Q,Flushing,NY,11358,Chief Growth Officer,McCann,622,Third Ave,New York,NY,14195
2025,1,2857,P,Myrie,Zellnor,,H,"Leeson, Kellie",IND,,,,M,Manhattan,NY,10010,Deputy Vice President for New,Women's Refugee Commission,105,east 24th street,Manhattan,NY,1575
2025,4,1550,P,Reynoso,Antonio,,M,"Leon, Jose",IND,,,,Q,Forest Hills,NY,11375,Director,ST. NICKS ALLIANCE,2,KINGSLAND AVE,Brooklyn,NY,1995
2025,5,2243,P,Abreu,Shaun,,K,"Levine, Alan",IND,,,,M,New York,NY,10021,Lawyer,Cooley LLP,55,Hudson Yards,New York,NY,3850
2025,1,2993,P,Cuomo,Andrew,M,H,"Levine, Risa",IND,,,,M,New York,NY,10004,Development,JewBelong,37,W. 20th St,New York,NY,518
2025,5,2312,P,Bottcher,Erik,,K,"Levy, Cobi",IND,,,,M,New York,NY,10001,Hospitality,Prince Street Hospitality Grou,35,Hudson Yards,New York,NY,1050
2025,1,1545,P,Adams,Eric,L,N,"Lin, Gui An",IND,,,,Z,Armonk,NY,10504,Assistant Commissioner,NYPD,1,Police Plaza,New York,NY,4100
2025,1,148,P,Stringer,Scott,M,S,"Lin, Jian F",IND,,,,M,New York,NY,10016,Manager,Amber,221,Columbus Avenue,New York,NY,500
2025,4,2858,P,Sun,Calvin,D,H,"Lin, Lisa",IND,,,,Z,North Merrick,NY,11566,Court Attorney,NYS Unified Court System,12501,Queens Blvd,Jamaica,NY,750
2025,1,2993,P,Cuomo,Andrew,M,H,"Lippman, Harley",IND,,,,Z,Miami Beach,FL,33139,IT staffing,Genesis 10,950,3rd Avenue,New York,NY,23100
2025,5,2057,P,Santana,Elvis,,I,"Liriano, Kathy",IND,,,,X,Bronx,NY,10456,Director,Community Development,1179,Boston Road,Bronx,NY,50
2025,5,2863,P,Bondy,Faith,,H,"Lissman, Rachael",IND,,,,M,New York,NY,10022,Real Estate sales,Self-Employed,1033,2nd Avenue,New York,NY,1050
2025,1,2857,P,Myrie,Zellnor,,H,"Litman, Amanda",IND,,,,K,Brooklyn,NY,11238,Executive director,Run for Somethonh,836,Bergen Street,Brooklyn,NY,2625
2025,1,2993,P,Cuomo,Andrew,M,H,"Loeb, Michael",IND,,,,M,New York,NY,10021,Executive,Loeb Enterprises,712,5th Ave,New York,NY,58004
2025,1,2993,P,Cuomo,Andrew,M,H,"Lombino, David",IND,,,,K,Brooklyn,NY,11201,Real estate,Two trees management,45,Main Street,Brooklyn,NY,1750
2025,5,2937,P,Ye,Ling,,H,"Lu, Biao",IND,,,,K,Brooklyn,NY,11232,Retired,,,,,,210
2025,1,2993,P,Cuomo,Andrew,M,H,"Luttway, David",IND,,,,M,New York,NY,10023,President,PITCO Doods,567,Cinnabar St,San Jose,CA,42048
2025,1,2993,P,Cuomo,Andrew,M,H,"Lynch, Joseph",IND,,,,M,New York,NY,10022,Partner,NIXM Peabody,55,West 46th Street,New York,NY,95800
2025,1,2063,P,Adams,Adrienne,E,M,"Ma, Jennifer",IND,,,,M,New York,NY,10010,Real Estate,Corcoran,220,W 19th St,New York,NY,3850
2025,1,2899,P,Mamdani,Zohran,K,H,"MacFarlane, Jerrod",IND,,,,M,New York City,NY,10023,Development,The Action Lab,688,Woodward Avenue,Ridgewood,NY,5807
2025,4,2898,P,Colombo,Michael,,H,"Malik, Shalinar",IND,,,,S,Staten Island,NY,10312,Owner,Interscience Diagnostic Labs,4218,Amboy Rd,Staten Island,NY,200
2025,5,1529,NP,Menin,Julie,,L,"Mann, Christopher",IND,,,,Z,Millbrook,NY,12545,Partner,Sullivan & Cromwell LLP,125,Broad Street,New York,NY,4100
2025,1,2857,P,Myrie,Zellnor,,H,"Markham, Max",IND,,,,M,New York,NY,10035,Executive Director,Policing Project at NYU Law,40,Washington Square South,New York,NY,7345
2025,4,2777,P,Marrero,Grace,,I,"Marrero, Grace",CAN,,,,X,Bronx,NY,10467,,,,,,,25
2025,1,2993,P,Cuomo,Andrew,M,H,"Mason, Valerie",IND,,,,M,New York,NY,10021,Attorney,Otterbourg PC,320,E. 72nd St,New York,NY,12925
2025,1,2993,P,Cuomo,Andrew,M,H,"McKelvy, Christopher",IND,,,,M,New York,NY,10003,Owner,Self-Employed,225,E. 19th St,New York,NY,19450
2025,1,148,P,Stringer,Scott,M,S,"Mehiel, Dennis",IND,,,,M,New York,NY,10128,Manufacturing,"Four M Investments, LLC",7,Renaissance Square,New York,NY,1500
2025,1,2899,P,Mamdani,Zohran,K,H,"Mehmood, Isha",IND,,,,K,Brooklyn,NY,11238,Lawyer,HarperCollins Publishers,195,Broadway,New York,NY,4175
2025,1,2857,P,Myrie,Zellnor,,H,"Mellow, Ellen",IND,,,,M,New York,NY,10021,self employed,Self employed,184,East 70th Street,New York,NY,3170
2025,1,148,P,Stringer,Scott,M,S,"Merchant, Abraham",IND,,,,M,New York,NY,10282,Restauranteur,Merchants Hospitality,55,Liberty Street,New York,NY,1750
2025,5,2243,P,Abreu,Shaun,,K,"Messinger, Matthew",IND,,,,Z,Westport,CT,6880,CEO,Trinity Place Holdings,340,Madison Avenue,New York,NY,8600
2025,1,2993,P,Cuomo,Andrew,M,H,"Mihaltses, Haeda",IND,,,,Q,Bayside,NY,11361,Director,Sterling Project Development,150,Greenwich St,New York,NY,2750
2025,5,2891,P,Blas,Sarah,,H,"Miles, LaNaisha",IND,,,,S,Staten Island,NY,10301,Associate,Lowes,2171,forest ave,Staten Island,NY,100
2025,1,2884,P,Ramos,Jessica,,H,"Millard, Colin",IND,,,,Z,Ardsley,NY,10502,Iron Worker,Iron Workers International,1750,New York Ave,Washington,DC,100
2025,4,1707,P,Gibson,Vanessa,L,N,"Miller, Daneek",IND,,,,Q,Cambria Heights,NY,11411,,NOT EMPLOYED,,,,,175
2025,4,1707,P,Gibson,Vanessa,L,N,"Miller, Melva M.",IND,,,,Q,Springfield Gardens,NY,11413,Executive,"Melva M. Miller & Associates,",825,8th Ave,New York,NY,320
2025,1,2993,P,Cuomo,Andrew,M,H,"Miller, Suzanne",IND,,,,M,New York,NY,10019,President,DSM Realty corp. dba as Empire,150,"West 51st Street, Mezzanine",New York,NY,250
2025,1,2993,P,Cuomo,Andrew,M,H,"Missry, Morris",IND,,,,M,New York,NY,10017,Attorney,Wachtel Missry LLP,885,2nd Avenue,New York,NY,57850
2025,4,1707,P,Gibson,Vanessa,L,N,"Mizzi, Joseph",IND,,,,K,Brooklyn,NY,11201,Executive,Sciame Construction,14,Wall St,New York,NY,1015
2025,1,2993,P,Cuomo,Andrew,M,H,"Mobilia, Matthew",IND,,,,S,Staten Island,NY,10301,Attorney,Self-Employed,646,Forest Ave,Staten Island,NY,12200
2025,1,2993,P,Cuomo,Andrew,M,H,"Moinian, Matthew",IND,,,,M,New York,NY,10019,Entreprenuer,Self-Employed,3,Columbus Circle,New York,NY,52750
2025,1,2993,P,Cuomo,Andrew,M,H,"Moinian, Mitchell",IND,,,,M,Canal Street,NY,10013,Investor,Self,60,Madison Avenue,New York,NY,154500
2025,5,1945,NP,Farias,Amanda,,L,"Mujumder, Mohammed",IND,,,,X,The Bronx,NY,10472,Associate,Law Office of Bruce Fischer,1222,White Plains Rd,The Bronx,NY,320
2025,1,2884,P,Ramos,Jessica,,H,"Mullaney, Patrick",IND,,,,Z,Rockville Centre,NY,11570,Attorney,Self Employed,10009,Metropolitan Ave,Flushing,NY,3540
2025,1,2993,P,Cuomo,Andrew,M,H,"Munzer Loeb, Margaret",IND,,,,M,New York,NY,10023,Producer,Self-Employed,55,Hudson Yards,New York,NY,9650
2025,1,2993,P,Cuomo,Andrew,M,H,"Myers, Charles",IND,,,,M,New York,NY,10065,Consultant,Signum Global Advisors,116,E. 68th St,New York,NY,31750
2025,1,2899,P,Mamdani,Zohran,K,H,"Nair, Mira",IND,,,,M,New York,NY,10027,Film Maker,Mirabai Films,452,Riverside Drive,New York,NY,5575
2025,5,2853,P,Flores,Louis,,H,"Naseva, Vera",IND,,,,M,New York,NY,10001,,Not working,,Not working,,,2
2025,5,2312,P,Bottcher,Erik,,K,"Nave, Christopher",IND,,,,M,New York,NY,10019,CEO,Roundabout,231,West 39th Street,New York,NY,1050
2025,1,2193,P,Blake,Michael,A,I,"Nawaz, Shah",IND,,,,Q,Hollis,NY,11423,President,Golden Age Home Care,71-24,35th Avenue,Flushing,NY,2000
2025,1,2899,P,Mamdani,Zohran,K,H,"Nixon, Cynthia",IND,,,,M,New York,NY,10016,Actor,Self-Employed,218,E 32nd St,New York,NY,25920
2025,5,2384,P,Paladino,Vickie,,K,"Nolan, Nora",IND,,,,Q,Middle Village,NY,11379,Chief of Staff,Cord Meyer Development,111-15,Queens Blvd,Forest Hills,NY,9850
2025,1,2993,P,Cuomo,Andrew,M,H,"Nussbaum, Michael",IND,,,,Q,Hollis Hills,NY,11427,Publishing,Queens Eagle,8900,Sutphin Boulevard,Jamaica,NY,28675
2025,1,2993,P,Cuomo,Andrew,M,H,"O'Donoghue, Brian",IND,,,,M,New York,NY,10028,Attorney,Self-Employed,535,86th St,New York,NY,26200
2025,5,2243,P,Abreu,Shaun,,K,"Ores, Michelle",IND,,,,M,New York,NY,10024,Retired,,,,,,9310.14
2025,1,1164,P,Lander,Brad,,N,"Ortmann, Erik",IND,,,,Z,East Islip,NY,11730,Attorney,Kaufman Dolowich Voluck LLP,135,Crossways Park Dr,Woodbury,NY,4600
2025,1,2993,P,Cuomo,Andrew,M,H,"ostroff, Rick",IND,,,,Z,Loudonville,NY,12211,President & CEO,Ostroff Associates,150,State Street,Albany,NY,250
2025,5,2057,P,Santana,Elvis,,I,"OUTLAW, MATILDA",IND,,,,X,BRONX,NY,10451,Cook,Legends,1,East 161st Street,Bronx,NY,230
2025,2,1682,P,Rajkumar,Jenifer,,I,"Patel, Gopesh M",IND,,,,Z,North New Hyde Park,NY,11040,Owner,VLS Pharmacy,4402,5th Avenue,Brooklyn,NY,1250
2025,1,2993,P,Cuomo,Andrew,M,H,"Patricof, Lily",IND,,,,M,New York,NY,10013,Politics,The Juno Fund,456,Washington street,New York,NY,100
2025,5,2891,P,Blas,Sarah,,H,"Payne, Juah",IND,,,,S,Staten Island,NY,10306,,,,,,,200
2025,5,2891,P,Blas,Sarah,,H,"Payne, Juah",IND,,,,S,Staten Island,NY,10306,,Seamen's Society,50,Bay street,Staten Island,NY,200
2025,4,1707,P,Gibson,Vanessa,L,N,"Peeler-Allen, Kimberly",IND,,,,K,Brooklyn,NY,11233,Consultant,Peeler Allen Consulting,43,Rochester Ave,Brooklyn,NY,175
2025,1,1545,P,Adams,Eric,L,N,"Perry, Theo H",IND,,,,M,New York,NY,10009,Retired,Retired,,,,,2785
2025,1,1545,P,Adams,Eric,L,N,"Petraro, Vincent",IND,,,,,,,,Attorney,Vincent Petraro PLLC,34,Atlantic Avenue,New York,NY,2100
2025,1,2920,P,Tilson,Whitney,R,H,"Petry, John",IND,,,,M,New York,NY,10023,Finance,Sessa Capital,888,SEVENTH Ave,New York,NY,53775
2025,1,148,P,Stringer,Scott,M,S,"Pierre-Louis, Rosemonde",IND,,,,M,New York,NY,10026,Attorney,NYU McSilver,23,W 116th St,New York,NY,1170
2025,4,1902,P,Salamanca,Rafael,,N,"Piller, Sruly",IND,,,,K,Brooklyn,NY,11204,Insurance,PG Brokerage Inc,1648,61st Street,Brooklyn,NY,1050
2025,1,2884,P,Ramos,Jessica,,H,"Polonia, Franklyn",IND,,,,X,Bronx,NY,10458,Operations manager and founder,Haven Staffing Solutions,652,Amsterdam Ave,Manhattan,NY,1290
2025,5,BB,P,Weiner,Anthony,,K,"Ponomareva, Irina",IND,,,,K,Brooklyn,NY,11235,Executive Assistant,IBE Trade Corp,227,"East 58th Street,",New York,NY,2100
2025,5,2891,P,Blas,Sarah,,H,"Porter, Jacob",IND,,,,S,Staten Island,NY,10310,Security,Snug Harbor Cultural Center,1000,Richmond Terrace,Staten Island,NY,100
2025,5,2891,P,Blas,Sarah,,H,"Porter, Saul",IND,,,,S,Staten Island,NY,10310,Manager,Northfield LDC,160,Heberton Avenue,Staten Island,NY,100
2025,1,2857,P,Myrie,Zellnor,,H,"Pucino, David",IND,,,,M,Manhattan,NY,10013,Attorney,Giffords Law Center,133,Mulberry St,San Francisco,CA,5200
2025,5,504,P,Ariola,Joann,,M,"Rabbi Shlomo, Nisanov",IND,,,,Q,Flushing,NY,11367,Executive Director,Ben Miriam Incorporate,150-69,78 Road,Flushing,NY,2450
2025,1,2993,P,Cuomo,Andrew,M,H,"Rabin, Arthur",IND,,,,M,New York,NY,10001,President of sourcing,Centric Brands,350,5th ave,New york,NY,29800
2025,5,1945,NP,Farias,Amanda,,L,"Rahman, MD Khalilur",IND,,,,X,Bronx,NY,10461,Head Chef,Khalilur Biryani,1457,Unionport Rd,Bronx,NY,40
2025,5,2908,P,Colon,Federico,,H,"Ramirez, Feliciano J",IND,,,,X,Bronx,NY,10465,Owner,Self Employed,542,Bryant Ave.,Bronx,NY,975
2025,5,2835,P,Batchu,Sarah,L,H,"Ramirez, Miladys",IND,,,,M,New York,NY,10009,Receptionist,The Lower East Side Girls,402,East 8th Street,New York,NY,100
2025,1,2884,P,Ramos,Jessica,,H,"Ramos, Auribal",IND,,,,Z,East Northport,NY,11731,Retired,Retired,12,7th Ave E,East Northport,NY,105
2025,1,148,P,Stringer,Scott,M,S,"Ramos, Efrain",IND,,,,X,Bronx,NY,10458,Field Coordinator,Gilston Electric,338,E 98th St,New York,NY,200
2025,5,2047,P,Aronson,Vanessa,T,I,"Randall, Judy",IND,,,,M,New York,NY,10017,Retired,,,,,,300
2025,1,2993,P,Cuomo,Andrew,M,H,"Regan, Maurice",IND,,,,M,New York,NY,10014,Construction,Self-Employed,44,West 28th Street,New York,NY,8850
2025,1,2857,P,Myrie,Zellnor,,H,"Reiser, Samantha",IND,,,,M,New York,NY,10026,Attorney,Bronx Defenders,23,West 116th Street,Manhattan,NY,15415
2025,1,2884,P,Ramos,Jessica,,H,"Reyes, Ilse",IND,,,,Q,Queens,NY,11426,Manager,Help Home Care,246-68,86th Road,Queens,NY,210
2025,5,2057,P,Santana,Elvis,,I,"Richardson, Bernel Arthur",IND,,,,X,Bronx,NY,10456,,Retired,,,,,90
2025,1,148,P,Stringer,Scott,M,S,"Rigie, Andrew",IND,,,,M,New York,NY,10023,New York City Hospitality Alli,Executive Director,61,West 55th St.,New York,NY,800
2025,1,2899,P,Mamdani,Zohran,K,H,"Rivel, David",IND,,,,Q,Queens,NY,11106,Management Consultant,Self-Employed,3451,28th St,Queens,NY,3190
2025,3,311,P,Levine,Mark,,P,"Robert A. Ungar Associates, In",CORP,,,,Z,Albany,NY,12207,,,,,,,2350
2025,4,1902,P,Salamanca,Rafael,,N,"Rodelli, Nick",IND,,,,Q,Flushing,NY,11360,GM,Hunts Point Market,2A,NYC Terminal Market,Bronx,NY,5250
2025,5,2057,P,Santana,Elvis,,I,"Rodriguez, Anna",IND,,,,X,Bronx,NY,10459,,Retired,,,,,60
2025,1,1545,P,Adams,Eric,L,N,"Roever, Alisa",IND,,,,M,New York,NY,10028,,,,,,,16050
2025,5,2835,P,Batchu,Sarah,L,H,"Rosario, Jayleen",IND,,,,M,New York,NY,10009,Community Wellness Coordinator,The Lower Eastside Girls Club,101,Avenue D,New York,NY,65
2025,1,1545,P,Adams,Eric,L,N,"Rose, Max",IND,,,,S,Staten Island,NY,10301,Consultatant,Self,80,Bay Street,Staten Island,NY,41450
2025,1,2993,P,Cuomo,Andrew,M,H,"Rosen, Daniel",IND,,,,M,New York,NY,10028,REAL ESTATE,Rosen Partners LLC,654,Madison Avenue,New York,NY,46252
2025,1,2993,P,Cuomo,Andrew,M,H,"Rosen, Marvin",IND,,,,M,New York,NY,10024,Shareholder,Greenberg Traurig LLP,1,Vanderbilt Ave,New York,NY,50350
2025,1,2993,P,Cuomo,Andrew,M,H,"Rosenthal, Jane",IND,,,,M,New York,NY,10023,CEO,Tribeca Enterprises,375,Greenwich St,Canal Street,NY,20300
2025,1,1545,P,Adams,Eric,L,N,"Roth, Philip",IND,,,,Z,Miami Beach,FL,33154,Real Estate Developer,IBE Trade Corp,227,East 58th Street,New York,NY,600
2025,1,2857,P,Myrie,Zellnor,,H,"Rothman, Jillian",IND,,,,M,New York,NY,10024,Partnerships,Google LLC,5,West 86th St,Manhattan,NY,500
2025,1,2993,P,Cuomo,Andrew,M,H,"Ruben, Richard",IND,,,,M,New York,NY,10028,Real estate,Ruben Companies,600,Madison Avenue,New York,NY,38975
2025,1,2993,P,Cuomo,Andrew,M,H,"Ruderfer, Stuart",IND,,,,M,New York,NY,10028,CEO,Self-Employed,436,Lafayette Street,New York,NY,1350
2025,1,2993,P,Cuomo,Andrew,M,H,"Russo, Steven",IND,,,,M,New York,NY,10025,Attorney,Greenberg Traurig,1,Vanderbilt Ave,New York,NY,500
2025,1,2857,P,Myrie,Zellnor,,H,"Ruttenberg, Raphael",IND,,,,K,Brooklyn,NY,11238,Attorney,New York Legal Assistance Grou,61,Martense Street,Brooklyn,NY,500
2025,1,2993,P,Cuomo,Andrew,M,H,"Saban, Joey",IND,,,,K,Brooklyn,NY,11223,Chief of Staff,New York State Senate,1412,Avenue J,Brooklyn,NY,111529
2025,1,2903,P,Walden,James,,H,"Sabbella, Vasu",IND,,,,Z,Jericho,NY,11753,Finance Professional,Ascent Pharmaceuticals Inc.,400,South Technology Drive,Central Islip,NY,21000
2025,5,1256,P,Cabrera,Fernando,L,N,"Sabino, Salvador",IND,,,,Z,Mt Vernon,NY,10552,Lead Pastor,Heavenly Vision Christian Cent,2868,Jerome Avenue,Bronx,NY,1395
2025,1,2993,P,Cuomo,Andrew,M,H,"Sachs, Jeffrey",IND,,,,M,New York,NY,10017,Consultant,Sachs Policy Group,60,E. 42nd St,New York,NY,82800
2025,5,1624,NP,Brooks-Powers,Selvena,,L,"Sahai-Mohan, Taramattie",IND,,,,Q,Far Rockaway,NY,11691,Senior Manager of Pro Bono and,"Cadwalader, Wickersham & Taft",200,Liberty Street,New York,NY,775
2025,1,2903,P,Walden,James,,H,"Sakowich, Reid",IND,,,,Z,North New Hyde Park,NY,11040,Master Plumber,Sakowich Plumbing & Heating Co,124,S 8th St,Manhasset Hills,NY,7750
2025,1,2857,P,Myrie,Zellnor,,H,"Sandorf, Julie",IND,,,,M,New York,NY,10025,Philanthropy associate,charles h revson foundation,55,East 59th st,New York,NY,500
2025,1,2884,P,Ramos,Jessica,,H,"Santana, Franklin",IND,,,,Q,Astoria,NY,11102,Restaurant Owner,Self Employed,10,Halletts Point,New York,NY,70
2025,5,2972,P,Sarantopoulos,George,,H,"Sarantopoulos, John",IND,,,,K,Brooklyn,NY,11209,Sales,Self Employed,280,85th Street,Brooklyn,NY,220
2025,1,2193,P,Blake,Michael,A,I,"Sarder, Faruk A",IND,,,,Q,Briarwood,NY,11435,President,Darul Ulloom NY,,,Briarwood,NY,2750
2025,1,2993,P,Cuomo,Andrew,M,H,"Sathya, Chethan",IND,,,,Z,Roslyn,NY,11576,Physician,Northwell,269-01,76th ave,Queens,NY,44200
2025,1,2993,P,Cuomo,Andrew,M,H,"Schloss, Lawrence",IND,,,,M,New York,NY,10075,Retired,,,,,,1000
2025,1,2993,P,Cuomo,Andrew,M,H,"Shaoul, Benjamin",IND,,,,M,New York,NY,10014,President,Mreg,131,Charles Street,New York,NY,55510
2025,1,2857,P,Myrie,Zellnor,,H,"Shaw, Claire",IND,,,,M,New York,NY,10011,"""Director, Investor Relations""",Unite America,6,Patchin Place,Manhattan,NY,430
2025,1,2993,P,Cuomo,Andrew,M,H,"Sidamon-Eristoff, Andrew",IND,,,,Z,Princeton,NJ,8540,Unemployed,,,,,,2700
2025,1,2993,P,Cuomo,Andrew,M,H,"Simon, Brian",IND,,,,Z,Poughkeepsie,NY,12603,Managing Partner,Hollis Public Affairs,192,Lexington Ave,New York,NY,17600
2025,1,2993,P,Cuomo,Andrew,M,H,"Sinasohn, Daniel",IND,,,,M,New York,NY,10019,Attorney,Field Point Servicing,550,W 54th St,New York,NY,23538
2025,1,148,P,Stringer,Scott,M,S,"Sinensky, Michael",IND,,,,M,New York,NY,10011,Hospitality,Self,621,West 64th Street,New York,NY,500
2025,1,2993,P,Cuomo,Andrew,M,H,"Singh, Jaspreet",IND,,,,Z,Elk Grove,CA,95758,Attorney,Self-Employed,108-14,Jamaica Ave,Richmond Hill,NY,66600
2025,1,2884,P,Ramos,Jessica,,H,"Singh, Navdeep",IND,,,,Z,Dix Hills,NY,11746,Contractor,Self Employed,146-22,South End Rd,Jamaica,NY,1000
2025,2,1682,P,Rajkumar,Jenifer,,I,"Singh, Parminder",IND,,,,Z,North New Hyde Park,NY,11040,Self Employed,Self Employed,271-19,Union Tpke,North New Hyde Park,NY,800
2025,1,2899,P,Mamdani,Zohran,K,H,"Singham Goodwin, Alicia",IND,,,,M,NEW YORK,NY,10031,Political Director,Jews For Racial & Economic Jus,275,Park Ave,Brooklyn,NY,6425.7
2025,1,2993,P,Cuomo,Andrew,M,H,"Sirota, Richard",IND,,,,Z,Irvington,NY,10533,Private Investor,Self-Employed,1,Palliser Road,Irvington,NY,9250
2025,1,2857,P,Myrie,Zellnor,,H,"Skoufis, James",IND,,,,Z,Cornwall,NY,12518,legislator,new york state senate,45,quaker ave,Cornwall,NY,5655
2025,5,2860,P,Epstein,Harvey,D,H,"Smyth, McGregor",IND,,,,M,New York,NY,10002,Attorney,New York Lawyers for the Publi,151,W. 30th Street,New York,NY,977.58
2025,1,2857,P,Myrie,Zellnor,,H,"Smyth, Thomas",IND,,,,M,Manhattan,NY,10011,Technology Entrepreneur,Self Employed,147,West 22nd St,Manhattan,NY,1300
2025,1,2993,P,Cuomo,Andrew,M,H,"Snyder, Adam",IND,,,,M,New York,NY,10013,Advertising Sales,Interstate Outdoor Advertising,333,Washington Street,Jersey City,NJ,69400
2025,1,2993,P,Cuomo,Andrew,M,H,"Snyder, Orin",IND,,,,M,New York,NY,10128,Lawyer,Gibson Dunn,200,Park Avenue,New York,NY,21700
2025,5,2738,P,Haque,Shah,S,I,"SOBHAN, MD ABDUS",IND,,,,Q,Jackson Heights,NY,11372,,Foundation for Better World,,37 21 75th Street,Jackson Heights,NY,95
2025,1,1545,P,Adams,Eric,L,N,"Solano, Joseph",IND,,,,K,Brooklyn,NY,11206,Manager,Madison Group,66,Whipple St,Brooklyn,NY,875
2025,4,1550,P,Reynoso,Antonio,,M,"Solano, Joseph",IND,,,,K,Brooklyn,NY,11206,Consultant,Self Employed,66,Whipple St,Brooklyn,NY,525
2025,5,2243,P,Abreu,Shaun,,K,Solidarity PAC,PCOMP,,,,M,New York,NY,10065,,,,,,,8100
2025,5,2192,P,Dinowitz,Eric,,L,SOLIDARITY PAC INC.,PCOMP,,,,M,New York,NY,10065,,,,,,,11496
2025,4,1938,P,Powers,Keith,,M,"Song, Edward",IND,,,,K,Brooklyn,NY,11249,CEO,LIC COM LLC,36-56,34th Street,Long Island City,NY,3045
2025,1,2903,P,Walden,James,,H,"Southwell, Alexander",IND,,,,M,New York,NY,10024,Attorney,McDermott Will & Emery,One,Vanderbilt Avenue,New York,NY,500
2025,1,2993,P,Cuomo,Andrew,M,H,"Spano, Nick",IND,,,,Z,Yonkers,NY,10710,Owner,Empire Strategic Planning,111,Washington Ave,Albany,NY,117450
2025,1,2857,P,Myrie,Zellnor,,H,"Spelman, Erika",IND,,,,K,Brooklyn,NY,11218,Librarian,Brooklyn Public Library,303,Ave X,Brooklyn,NY,100
2025,1,2857,P,Myrie,Zellnor,,H,"Squadron, Daniel",IND,,,,K,Brooklyn,NY,11231,Preseident,Future Now Action,611,Pennsylvania Ave,Washington,DC,2500
2025,1,2993,P,Cuomo,Andrew,M,H,"Stallings, Kenneth",IND,,,,K,Brooklyn,NY,11221,Attorney,L+M Development Partners LLC,1865,Palmer Ave,Larchmont,NY,56570.25
2025,5,2923,P,Thomas-Henry,Shanel,,H,"Sullivan, Michael",IND,,,,Z,Weston,CT,6883,Chief of Staff,Point 72,72,Cummings Point Rd,Stamford,CT,19515
2025,5,2937,P,Ye,Ling,,H,"Sun, Kaden",IND,,,,K,Brooklyn,NY,11220,School administrator,New York City public school,52,Chambers Street,New York,NY,90
2025,1,2993,P,Cuomo,Andrew,M,H,"Sunshine, Ken",IND,,,,M,New York,NY,10028,Communications,SSM&L,6,E. 32nd St,New York,NY,36850
2025,1,148,P,Stringer,Scott,M,S,"Sutton, Samuel G",IND,,,,K,Brooklyn,NY,11230,Not employed,Not employed,,,,,1750
2025,1,2857,P,Myrie,Zellnor,,H,"Theodore, Benjamin",IND,,,,K,BROOKLYN,NY,11218,Alumni Director,Run for Something,220,I St NE,Washington,DC,3275
2025,1,2993,P,Cuomo,Andrew,M,H,"Tisch, Laurie",IND,,,,M,New York,NY,10065,Owner,Self-Employed,156,West 56th Street,New York,NY,43700
2025,5,2312,P,Bottcher,Erik,,K,"Tobin, Emily",IND,,,,M,New York,NY,10011,,Retired,,,,,6573
2025,4,296,P,Hoylman-Sigal,Brad,,K,"Tobin, Lorenzo",IND,,,,M,New York,NY,10011,student,not employed,,,,,6400
2025,1,2857,P,Myrie,Zellnor,,H,"Trapanese, Mike",IND,,,,K,Brooklyn,NY,11238,Investor,Behrens Investment Group,436,Sterling Place,Brooklyn,NY,700
2025,5,2860,P,Epstein,Harvey,D,H,"Tusk, Bradley",IND,,,,M,New York,NY,10013,Philanthropist and Venture Cap,Self,251,Park Avenue South,New York,NY,1250
2025,4,1707,P,Gibson,Vanessa,L,N,"Ungar, Robert A.",IND,,,,Z,Albany,NY,12207,President,"Robert A. Ungar Associates, In",150,State Street,Albany,NY,1000
2025,5,2835,P,Batchu,Sarah,L,H,"Vadon, Sharice",IND,,,,M,New York,NY,10009,Zumba Instructor,Center Wellbeing & Happiness,101,Avenue D,New York,NY,50
2025,4,1707,P,Gibson,Vanessa,L,N,"Valenzuela, Sara",IND,,,,M,New York,NY,10009,Consultant,Valenzuela Strategies LLC,649,E 14th Street,New York,NY,175
2025,3,311,P,Levine,Mark,,P,"Vallone, Perry",IND,,,,Z,Eatontown,NJ,7724,Government Relations,Constantinople & Vallone Consu,233,Broadway,New York,NY,1780
2025,1,2899,P,Mamdani,Zohran,K,H,"Viswanath, Sunita",IND,,,,K,Brooklyn,NY,11201,Not Employed,Not Employed,,,,,8105
2025,1,2993,P,Cuomo,Andrew,M,H,"Vivolo, Angelo",IND,,,,M,New York,NY,10065,Retired,Retired,220,E. 65th St,New York,NY,43476
2025,1,2993,P,Cuomo,Andrew,M,H,"Wachtel, William",IND,,,,Z,Chappaqua,NY,10514,Attorney,Wachtel Missry,1,Dag Hammarshjold Plz,New York,NY,6000
2025,1,2857,P,Myrie,Zellnor,,H,"Wagner-Goldstein, Katherine",IND,,,,Z,Upper Montclair,NJ,7043,Independent Consultant,Katherine Wagner-Goldstein,100,Inwood Avenue,Montclair,NJ,300
2025,1,2857,P,Myrie,Zellnor,,H,"Walker, Melissa",IND,,,,K,BROOKLYN,NY,11215,Director,Future Now,1638,8th Ave,Brooklyn,NY,985
2025,1,2857,P,Myrie,Zellnor,,H,"Walsh, Katherine",IND,,,,K,Brooklyn,NY,11220,Environment consultant,CDP,127,west 26th suite,New York,NY,635
2025,1,148,P,Stringer,Scott,M,S,"Wang, Jicheng",IND,,,,Q,Flushing,NY,11358,Self Employed,Self Employed,2301,Borden Ave,Astoria,NY,3775
2025,5,2343,P,Ung,Sandra,,K,"Wang, Jicheng",IND,,,,Q,Flushing,NY,11358,Manager,2 & W Food Inc.,2301,Borden Ave.,Astoria,NY,3760
2025,1,2857,P,Myrie,Zellnor,,H,"Weisberg, Jackie",IND,,,,K,Brooklyn Heights,NY,11201,Photographer,Self employed,1,Clinton st,Brooklyn Heights,NY,5100
2025,1,2857,P,Myrie,Zellnor,,H,"Weissman, Gideon L",IND,,,,M,Manhattan,NY,10031,Transportation Planner,Jacobs Civil Consultants Inc,1,Pennsylvania Plaza,Manhattan,NY,270
2025,4,1707,P,Gibson,Vanessa,L,N,"Weissman, Joshua",IND,,,,Z,Bedford,NY,10506,Real Estate Developer,Self Employed,16,Banks Farm Road,Bedford,NY,320
2025,1,1545,P,Adams,Eric,L,N,"Whelan, James",IND,,,,Q,Bellerose,NY,11426,lobbyist,Real Estate Board of New York,570,Lexington Avenue,NEW YORK,NY,3100
2025,4,1707,P,Gibson,Vanessa,L,N,"Whelan, James",IND,,,,M,New York,NY,10022,President,REBNY,570,Lexington Ave,New York,NY,320
2025,1,2993,P,Cuomo,Andrew,M,H,"Whelan, Jim",IND,,,,K,Brooklyn Heights,NY,11201,President,Real Estate Board of New York,570,Lexington Ave.,New York,NY,1250
2025,4,1707,P,Gibson,Vanessa,L,N,"White, Daniel",IND,,,,K,Brooklyn,NY,11215,Senior Executive,Geto & de Milley Inc,276,5th Ave,New York,NY,320
2025,5,2860,P,Epstein,Harvey,D,H,"Wick, Larisa",IND,,,,Z,MAPLEWOOD,NJ,7040,Attorney / Lobbyist,The Wright Group NY,151,West 30th Street,New York,NY,566.42
2025,1,2993,P,Cuomo,Andrew,M,H,"wiesenthal, robert",IND,,,,M,New York,NY,10001,CEO,Blade Urban Air Mobility,31,Hudson Yards,New York,NY,59100
2025,1,2993,P,Cuomo,Andrew,M,H,"WILLIAMSON, GREG",IND,,,,M,New York,NY,10023,Music producer,RWE PARTNERS,241,Centre Street,New York,NY,63300
2025,5,2057,P,Santana,Elvis,,I,"Wilson, Ayan",IND,,,,X,Bronx,NY,10451,Childcare,Self-Employed,812,Melrose Ave,Bronx,NY,500
2025,1,2857,P,Myrie,Zellnor,,H,"Winton, Wendell",IND,,,,Z,Houston,TX,77056,Fashion Design,1234 LLC,373,Broadway,Manhattan,NY,7675
2025,1,2993,P,Cuomo,Andrew,M,H,"Wisch, Steven",IND,,,,M,New York,NY,10128,investor,Self-Employed,1125,5th Avenue,New York,NY,45100
2025,5,2863,P,Bondy,Faith,,H,"Wolk, Aaron",IND,,,,M,New York,NY,10022,Founder,Bombas,881,Broadway,New York,NY,2100
2025,5,1624,NP,Brooks-Powers,Selvena,,L,"Woloz, Michael",IND,,,,M,New York,NY,10025,Government Relations,CMW Strategies,233,Broadway,New York,NY,5125
2025,5,1624,NP,Brooks-Powers,Selvena,,L,"Woloz, Michael",IND,,,,Q,Astoria,NY,11105,Consulting,CMW Strategies,233,Broadway,New York,NY,100
2025,3,311,P,Levine,Mark,,P,"Woloz, Michael",IND,,,,Q,Long Island City,NY,11105,Government Relations,CMW Strategies,233,Broadway,New York,NY,1580
2025,5,2937,P,Ye,Ling,,H,"Wu, Jinfeng",IND,,,,K,Brooklyn,NY,11228,Mortgage Loan Officer,GO RASCAL INC.,185,Wythe Avenue,Brooklyn,NY,40
2025,1,148,P,Stringer,Scott,M,S,"Yao, Chiang Ding",IND,,,,M,New York,NY,10002,Physician,AE and Ly Medical Associates P,136-33,37th Ave,Flushing,NY,4840
2025,1,2903,P,Walden,James,,H,"Ye, Run",IND,,,,M,New York,NY,10028,Chief Investment Officer,Tiger Pacific Capital,126,East 56th Street,New York,NY,600
2025,1,148,P,Stringer,Scott,M,S,"Yi Liu, Fang",IND,,,,,,,,,,,,,,1000
2025,5,2937,P,Ye,Ling,,H,"Yip, Hau Yung",IND,,,,S,Staten Island,NY,10309,Front Desk Receptionist,Happy Health Adult Day Care,950,41 Street,Brooklyn,NY,150
2025,1,2884,P,Ramos,Jessica,,H,"Zaremba, John",IND,,,,K,Brooklyn,NY,11228,Lawyer,Zaremba Brown,40,Wall Street,New York,NY,4200
2025,1,2993,P,Cuomo,Andrew,M,H,"Zaremba, John",IND,,,,K,Brooklyn,NY,11209,Lawyer,Zaremba Brown,40,Wall St,New York,NY,47450
2025,1,148,P,Stringer,Scott,M,S,"Zeng, Hongying",IND,,,,Q,Flushing,NY,11354,President,Apollo Information Consulting,136-68,Roosevelt Avenue,Flushing,NY,115
2025,5,2343,P,Ung,Sandra,,K,"Zeng, Shao Yun",IND,,,,Q,Flushing,NY,11355,Nurse,Heart to Heart Homecare,2361,Nostrand Ave.,Brooklyn,NY,130
2025,4,2858,P,Sun,Calvin,D,H,"Zhang, Cheryl",IND,,,,M,New York,NY,10128,Banking admin,China construction bank new yo,1095 avd,Of America,New York,NY,1225
2025,5,2937,P,Ye,Ling,,H,"Zhang, Fa Yu",IND,,,,K,Brooklyn,NY,11220,Retired,,,,,,120
2025,5,1987,P,Marte,Christopher,,L,"Zhang, Yueheng",IND,,,,M,New York,NY,10002,,,,,,,90
2025,5,2343,P,Ung,Sandra,,K,"Zheng, Shi Fei",IND,,,,Q,Flushing,NY,11358,retired,retired,,,,,100
2025,1,148,P,Stringer,Scott,M,S,"zheng, song",IND,,,,Q,Flushing,NY,11356,Kinship nursing,ABI Fi Corp,41,Main Street,NY,NY,3000
2025,1,148,P,Stringer,Scott,M,S,"Zhou, Xu",IND,,,,Z,Great Neck,NY,11023,Engineer,Times Building PC,61-12,184th street,Flushing,NY,2250
2025,1,2993,P,Cuomo,Andrew,M,H,"Zhuang, Susan",IND,,,,K,Brooklyn,NY,11214,Councilmember,NYC COUNCIL,250,Broadway,New York,NY,1770
2025,1,2903,P,Walden,James,,H,"Ziff, Ann",IND,,,,M,NEW YORK,NY,10128,Philanthropist,Self-Employed,1080,5th Avenue,New York,NY,500
